{
    "links": {
        "self": "http://www.neowsapp.com/rest/v1/neo/54051096?api_key=iIulBulltgU6a56xZRHN4H3l9WmuAYTsLGpBGhQ2"
    },
    "id": "54051096",
    "neo_reference_id": "54051096",
    "name": "(2020 PV4)",
    "designation": "2020 PV4",
    "nasa_jpl_url": "http://ssd.jpl.nasa.gov/sbdb.cgi?sstr=54051096",
    "absolute_magnitude_h": 27.066,
    "estimated_diameter": {
        "kilometers": {
            "estimated_diameter_min": 0.010264906,
            "estimated_diameter_max": 0.0229530276
        },
        "meters": {
            "estimated_diameter_min": 10.2649059976,
            "estimated_diameter_max": 22.9530275932
        },
        "miles": {
            "estimated_diameter_min": 0.0063783149,
            "estimated_diameter_max": 0.0142623457
        },
        "feet": {
            "estimated_diameter_min": 33.677514193,
            "estimated_diameter_max": 75.3052110488
        }
    },
    "is_potentially_hazardous_asteroid": false,
    "close_approach_data": [
        {
            "close_approach_date": "1914-08-27",
            "close_approach_date_full": "1914-Aug-27 13:46",
            "epoch_date_close_approach": -1746612840000,
            "relative_velocity": {
                "kilometers_per_second": "16.7777136345",
                "kilometers_per_hour": "60399.769084096",
                "miles_per_hour": "37530.0676289484"
            },
            "miss_distance": {
                "astronomical": "0.2157268532",
                "lunar": "83.9177458948",
                "kilometers": "32272277.740522684",
                "miles": "20053063.5150496792"
            },
            "orbiting_body": "Earth"
        },
        {
            "close_approach_date": "1946-05-14",
            "close_approach_date_full": "1946-May-14 13:43",
            "epoch_date_close_approach": -745841820000,
            "relative_velocity": {
                "kilometers_per_second": "10.4471082069",
                "kilometers_per_hour": "37609.589544773",
                "miles_per_hour": "23369.136347973"
            },
            "miss_distance": {
                "astronomical": "0.0111221212",
                "lunar": "4.3265051468",
                "kilometers": "1663845.641401844",
                "miles": "1033865.7405756872"
            },
            "orbiting_body": "Earth"
        },
        {
            "close_approach_date": "2020-08-09",
            "close_approach_date_full": "2020-Aug-09 15:59",
            "epoch_date_close_approach": 1596988740000,
            "relative_velocity": {
                "kilometers_per_second": "10.5206720656",
                "kilometers_per_hour": "37874.4194361161",
                "miles_per_hour": "23533.6913435133"
            },
            "miss_distance": {
                "astronomical": "0.0097874927",
                "lunar": "3.8073346603",
                "kilometers": "1464188.060560549",
                "miles": "909804.2726476162"
            },
            "orbiting_body": "Earth"
        }
    ],
    "orbital_data": {
        "orbit_id": "2",
        "orbit_determination_date": "2020-08-17 06:26:08",
        "first_observation_date": "2020-08-15",
        "last_observation_date": "2020-08-17",
        "data_arc_in_days": 2,
        "observations_used": 18,
        "orbit_uncertainty": "8",
        "minimum_orbit_intersection": ".00512711",
        "jupiter_tisserand_invariant": "3.747",
        "epoch_osculation": "2459077.5",
        "eccentricity": ".5155029557281551",
        "semi_major_axis": "1.923792609658244",
        "inclination": ".6182754974719066",
        "ascending_node_longitude": "343.6026045773244",
        "orbital_period": "974.6210900115728",
        "perihelion_distance": ".9320718331714383",
        "perihelion_argument": "291.9345791678506",
        "aphelion_distance": "2.915513386145049",
        "perihelion_time": "2459038.641405269186",
        "mean_anomaly": "14.35336690993105",
        "mean_motion": ".369374317557324",
        "equinox": "J2000",
        "orbit_class": {
            "orbit_class_type": "APO",
            "orbit_class_description": "Near-Earth asteroid orbits which cross the Earth’s orbit similar to that of 1862 Apollo",
            "orbit_class_range": "a (semi-major axis) > 1.0 AU; q (perihelion) < 1.017 AU"
        }
    },
    "is_sentry_object": false
}